NORAD_CAT_ID,OBJECT_NAME,OBJECT_TYPE,EPOCH,MEAN_MOTION,ECCENTRICITY,INCLINATION,RA_OF_ASC_NODE,ARG_OF_PERICENTER,MEAN_ANOMALY,BSTAR,MEAN_MOTION_DOT,MEAN_MOTION_DDOT,TLE_LINE0,TLE_LINE1,TLE_LINE2,SEMIMAJOR_AXIS,PERIOD,APOGEE,PERIGEE,DECAYED
53734.0,STARLINK-4616,PAYLOAD,2024-02-10 07:32:24,15.08841382,0.0001482,53.2172,58.6725,96.4082,263.7079,4.7939e-05,4.75e-06,0.0,0 STARLINK-4616,1 53734U 22107AL  24041.31417377  .00000475  00000-0  47939-4 0  9990,2 53734  53.2172  58.6725 0001482  96.4082 263.7079 15.08841382 80092,6917.876,95.437,540.766,538.716,0.0
53734.0,STARLINK-4616,PAYLOAD,2024-02-11 04:12:25,15.08837874,0.0001657,53.2179,54.8089,103.2167,256.901,1.6061e-05,-3.2e-07,0.0,0 STARLINK-4616,1 53734U 22107AL  24042.17529861 -.00000032  00000-0  16061-4 0  9999,2 53734  53.2179  54.8089 0001657 103.2167 256.9010 15.08837874 79598,6917.887,95.438,540.898,538.606,0.0
53734.0,STARLINK-4616,PAYLOAD,2024-02-11 07:23:12,15.08838583,0.0001717,53.2184,54.2142,103.3661,256.7523,1.9583e-05,2.4e-07,0.0,0 STARLINK-4616,1 53734U 22107AL  24042.30777801  .00000024  00000-0  19583-4 0  9995,2 53734  53.2184  54.2142 0001717 103.3661 256.7523 15.08838583 80244,6917.885,95.438,540.938,538.562,0.0
53734.0,STARLINK-4616,PAYLOAD,2024-02-12 04:03:12,15.08842427,0.0001664,53.2185,50.3496,101.0094,259.1086,0.00010394,1.367e-05,0.0,0 STARLINK-4616,1 53734U 22107AL  24043.16889292  .00001367  00000-0  10394-3 0  9999,2 53734  53.2185  50.3496 0001664 101.0094 259.1086 15.08842427 79746,6917.873,95.437,540.889,538.587,0.0
53734.0,STARLINK-4616,PAYLOAD,2024-02-12 05:38:35,15.08843443,0.0001662,53.2185,50.0522,100.997,259.121,0.00011458,1.536e-05,0.0,0 STARLINK-4616,1 53734U 22107AL  24043.23513276  .00001536  00000-0  11458-3 0  9993,2 53734  53.2185  50.0522 0001662 100.9970 259.1210 15.08843443 80382,6917.87,95.437,540.885,538.585,0.0
53734.0,STARLINK-4616,PAYLOAD,2024-02-13 03:54:00,15.08834869,0.0001654,53.2182,45.8883,113.9661,246.1504,2.2471e-05,7e-07,0.0,0 STARLINK-4616,1 53734U 22107AL  24044.16250220  .00000070  00000-0  22471-4 0  9993,2 53734  53.2182  45.8883 0001654 113.9661 246.1504 15.08834869 79891,6917.896,95.438,540.905,538.617,0.0
53734.0,STARLINK-4616,PAYLOAD,2024-02-13 07:04:46,15.08835232,0.0001428,53.218,45.2912,106.1236,253.9914,1.4561e-05,-5.6e-07,0.0,0 STARLINK-4616,1 53734U 22107AL  24044.29498336 -.00000056  00000-0  14561-4 0  9995,2 53734  53.2180  45.2912 0001428 106.1236 253.9914 15.08835232 80547,6917.895,95.438,540.748,538.772,0.0
53734.0,STARLINK-4616,PAYLOAD,2024-02-13 16:37:05,15.08836759,0.0001366,53.2181,43.5119,103.9692,256.1453,1.9129e-05,1.7e-07,0.0,0 STARLINK-4616,1 53734U 22107AL  24044.69242415  .00000017  00000-0  19129-4 0  9995,2 53734  53.2181  43.5119 0001366 103.9692 256.1453 15.08836759 80605,6917.89,95.438,540.7,538.81,0.0
53734.0,STARLINK-4616,PAYLOAD,2024-02-14 06:55:33,15.08843361,0.0001442,53.2183,40.8351,102.2814,257.8339,2.153e-05,5.5e-07,0.0,0 STARLINK-4616,1 53734U 22107AL  24045.28858066  .00000055  00000-0  21530-4 0  9997,2 53734  53.2183  40.8351 0001442 102.2814 257.8339 15.08843361 80066,6917.87,95.437,540.733,538.738,0.0
53734.0,STARLINK-4616,PAYLOAD,2024-02-14 16:27:52,15.08831189,0.0001444,53.2179,39.0509,104.0415,256.0738,0.00018094,2.592e-05,0.0,0 STARLINK-4616,1 53734U 22107AL  24045.68602618  .00002592  00000-0  18094-3 0  9999,2 53734  53.2179  39.0509 0001444 104.0415 256.0738 15.08831189 80121,6917.907,95.438,540.771,538.773,0.0
53734.0,STARLINK-4616,PAYLOAD,2024-02-15 08:21:43,15.08840344,0.000159,53.2196,36.0732,105.1054,255.0114,0.00010416,1.37e-05,0.0,0 STARLINK-4616,1 53734U 22107AL  24046.34842334  .00001370  00000-0  10416-3 0  9997,2 53734  53.2196  36.0732 0001590 105.1054 255.0114 15.08840344 80858,6917.879,95.438,540.844,538.644,0.0
53734.0,STARLINK-4616,PAYLOAD,2024-02-15 22:40:12,15.08834894,0.0001435,53.218,33.397,86.4716,273.6441,3.8195e-05,3.2e-06,0.0,0 STARLINK-4616,1 53734U 22107AL  24046.94459035  .00000320  00000-0  38195-4 0  9994,2 53734  53.2180  33.3970 0001435  86.4716 273.6441 15.08834894 80941,6917.896,95.438,540.754,538.768,0.0
53734.0,STARLINK-4616,PAYLOAD,2024-02-16 05:01:45,15.08835988,0.000123,53.2182,32.2112,98.1369,261.9762,2.9188e-05,1.77e-06,0.0,0 STARLINK-4616,1 53734U 22107AL  24047.20955004  .00000177  00000-0  29188-4 0  9993,2 53734  53.2182  32.2112 0001230  98.1369 261.9762 15.08835988 80352,6917.893,95.438,540.609,538.907,0.0
53734.0,STARLINK-4616,PAYLOAD,2024-02-16 06:37:07,15.08847257,0.0001414,53.2174,31.912,103.3717,256.7432,2.0786e-05,4.3e-07,0.0,0 STARLINK-4616,1 53734U 22107AL  24047.27578322  .00000043  00000-0  20786-4 0  9991,2 53734  53.2174  31.9120 0001414 103.3717 256.7432 15.08847257 80367,6917.858,95.437,540.701,538.745,0.0
53734.0,STARLINK-4616,PAYLOAD,2024-02-16 08:12:30,15.08850881,0.0001352,53.2176,31.6134,92.1232,267.9914,6.7796e-05,7.92e-06,0.0,0 STARLINK-4616,1 53734U 22107AL  24047.34201934  .00000792  00000-0  67796-4 0  9994,2 53734  53.2176  31.6134 0001352  92.1232 267.9914 15.08850881 81007,6917.847,95.437,540.647,538.777,0.0
53734.0,STARLINK-4616,PAYLOAD,2024-02-17 04:52:32,15.08835965,0.0001554,53.2183,27.7449,99.843,260.2737,5.5852e-05,6.01e-06,0.0,0 STARLINK-4616,1 53734U 22107AL  24048.20314887  .00000601  00000-0  55852-4 0  9991,2 53734  53.2183  27.7449 0001554  99.8430 260.2737 15.08835965 80507,6917.893,95.438,540.833,538.683,0.0
53734.0,STARLINK-4616,PAYLOAD,2024-02-17 08:03:17,15.08848277,0.0001781,53.2192,27.1498,108.478,251.6406,3.784e-05,3.14e-06,0.0,0 STARLINK-4616,1 53734U 22107AL  24048.33562179  .00000314  00000-0  37840-4 0  9992,2 53734  53.2192  27.1498 0001781 108.4780 251.6406 15.08848277 80521,6917.855,95.437,540.952,538.488,0.0
53734.0,STARLINK-4616,PAYLOAD,2024-02-17 16:00:13,15.08843055,0.0001691,53.2181,25.6631,107.4426,252.6751,5.5579e-06,-2e-06,0.0,0 STARLINK-4616,1 53734U 22107AL  24048.66682496 -.00000200  00000-0  55579-5 0  9998,2 53734  53.2181  25.6631 0001691 107.4426 252.6751 15.08843055 80575,6917.871,95.437,540.906,538.566,0.0
53734.0,STARLINK-4616,PAYLOAD,2024-02-18 04:43:18,15.08843048,0.0001371,53.2171,23.287,102.7082,257.4063,0.00011425,1.531e-05,0.0,0 STARLINK-4616,1 53734U 22107AL  24049.19674202  .00001531  00000-0  11425-3 0  9990,2 53734  53.2171  23.2870 0001371 102.7082 257.4063 15.08843048 81284,6917.871,95.437,540.685,538.788,0.0
53734.0,STARLINK-4616,PAYLOAD,2024-02-19 04:34:04,15.08862905,0.0001525,53.218,18.8238,97.0019,263.1146,0.00018542,2.666e-05,0.0,0 STARLINK-4616,1 53734U 22107AL  24050.19032613  .00002666  00000-0  18542-3 0  9993,2 53734  53.2180  18.8238 0001525  97.0019 263.1146 15.08862905 80805,6917.81,95.436,540.73,538.62,0.0
53734.0,STARLINK-4616,PAYLOAD,2024-02-19 07:44:50,15.08864584,0.0001508,53.2188,18.2288,97.5063,262.6101,0.00013649,1.886e-05,0.0,0 STARLINK-4616,1 53734U 22107AL  24050.32280450  .00001886  00000-0  13649-3 0  9998,2 53734  53.2188  18.2288 0001508  97.5063 262.6101 15.08864584 81459,6917.805,95.436,540.713,538.627,0.0
53734.0,STARLINK-4616,PAYLOAD,2024-02-19 22:03:21,15.0882615,0.0001366,53.219,15.5534,100.0943,260.0204,-9.9884e-05,-1.877e-05,0.0,0 STARLINK-4616,1 53734U 22107AL  24050.91899570 -.00001877  00000-0 -99884-4 0  9990,2 53734  53.2190  15.5534 0001366 100.0943 260.0204 15.08826150 81548,6917.923,95.438,540.733,538.843,0.0
53734.0,STARLINK-4616,PAYLOAD,2024-02-20 04:24:53,15.0883295,0.0001535,53.2187,14.3646,108.4976,251.6183,-3.7545e-05,-8.85e-06,0.0,0 STARLINK-4616,1 53734U 22107AL  24051.18395071 -.00000885  00000-0 -37545-4 0  9991,2 53734  53.2187  14.3646 0001535 108.4976 251.6183 15.08832950 80952,6917.902,95.438,540.829,538.705,0.0
53734.0,STARLINK-4616,PAYLOAD,2024-02-20 13:57:12,15.08834101,0.0001519,53.2187,12.5809,108.3268,251.7889,-3.3926e-05,-8.28e-06,0.0,0 STARLINK-4616,1 53734U 22107AL  24051.58139151 -.00000828  00000-0 -33926-4 0  9996,2 53734  53.2187  12.5809 0001519 108.3268 251.7889 15.08834101 81649,6917.898,95.438,540.814,538.713,0.0
53734.0,STARLINK-4616,PAYLOAD,2024-02-21 04:15:40,15.0884461,0.0001242,53.2186,9.9065,100.3589,259.7544,-0.00012957,-2.35e-05,0.0,0 STARLINK-4616,1 53734U 22107AL  24052.17755056 -.00002350  00000-0 -12957-3 0  9992,2 53734  53.2186   9.9065 0001242 100.3589 259.7544 15.08844610 81106,6917.866,95.437,540.59,538.872,0.0
53734.0,STARLINK-4616,PAYLOAD,2024-02-21 13:47:58,15.08846736,0.0001357,53.2193,8.1225,100.6683,259.4462,-8.7842e-05,-1.686e-05,0.0,0 STARLINK-4616,1 53734U 22107AL  24052.57498728 -.00001686  00000-0 -87842-4 0  9993,2 53734  53.2193   8.1225 0001357 100.6683 259.4462 15.08846736 81790,6917.86,95.437,540.664,538.786,0.0
53734.0,STARLINK-4616,PAYLOAD,2024-02-22 04:06:28,15.0882962,0.0001587,53.2203,5.4499,114.7439,245.3719,9.8182e-05,1.274e-05,0.0,0 STARLINK-4616,1 53734U 22107AL  24053.17115887  .00001274  00000-0  98182-4 0  9992,2 53734  53.2203   5.4499 0001587 114.7439 245.3719 15.08829620 81258,6917.912,95.438,540.875,538.679,0.0
53734.0,STARLINK-4616,PAYLOAD,2024-02-22 13:38:46,15.0883732,0.0001603,53.2195,3.661,96.6229,263.4945,0.00012142,1.645e-05,0.0,0 STARLINK-4616,1 53734U 22107AL  24053.56859594  .00001645  00000-0  12142-3 0  9998,2 53734  53.2195   3.6610 0001603  96.6229 263.4945 15.08837320 81941,6917.889,95.438,540.863,538.645,0.0
53734.0,STARLINK-4616,PAYLOAD,2024-02-23 02:21:51,15.08850186,0.0001561,53.2201,1.2836,104.6904,255.4261,4.1682e-05,3.76e-06,0.0,0 STARLINK-4616,1 53734U 22107AL  24054.09851123  .00000376  00000-0  41682-4 0  9999,2 53734  53.2201   1.2836 0001561 104.6904 255.4261 15.08850186 81392,6917.849,95.437,540.794,538.634,0.0
53734.0,STARLINK-4616,PAYLOAD,2024-02-23 13:29:34,15.08836489,0.0001607,53.2211,359.2042,92.453,267.6646,3.3911e-05,2.52e-06,0.0,0 STARLINK-4616,1 53734U 22107AL  24054.56220024  .00000252  00000-0  33911-4 0  9990,2 53734  53.2211 359.2042 0001607  92.4530 267.6646 15.08836489 82098,6917.891,95.438,540.868,538.644,0.0
